DMSP 5D-3 F16 (USA 172) 
1 28054U 03048A   26074.93556022  .00000135  00000+0  93980-4 0  9996
2 28054  98.9985  98.1099 0007960  57.0733  14.8487 14.14464558156301
METEOSAT-9 (MSG-2)      
1 28912U 05049B   26074.07671722  .00000129  00000+0  00000+0 0  9991
2 28912   9.1481  55.0737 0000384 223.8894 327.1212  1.00271159  6050
DMSP 5D-3 F17 (USA 191) 
1 29522U 06050A   26074.97143472  .00000175  00000+0  11277-3 0  9990
2 29522  98.7412  83.4390 0009410 328.1082  31.9521 14.14967089999230
FENGYUN 3A              
1 32958U 08026A   26074.79691101  .00000093  00000+0  64768-4 0  9992
2 32958  98.6803  17.4182 0009505  42.3987 317.7923 14.19548339922156
GOES 14                 
1 35491U 09033A   26074.74805591  .00000108  00000+0  00000+0 0  9992
2 35491   1.4469  84.2438 0001670 273.6428 279.6690  1.00103804  5655
DMSP 5D-3 F18 (USA 210) 
1 35951U 09057A   26074.93564524  .00000236  00000+0  14533-3 0  9990
2 35951  98.8971  55.9444 0011462 150.8692 209.3123 14.14839940846408
EWS-G2 (GOES 15)        
1 36411U 10008A   26074.93596696  .00000021  00000+0  00000+0 0  9997
2 36411   1.0350  84.8779 0002471  18.0053 110.9840  1.00270214 58700
COMS 1                  
1 36744U 10032A   26074.94862035 -.00000342  00000+0  00000+0 0  9994
2 36744   4.5630  76.6881 0000783 288.6910 277.8255  1.00271919 50159
FENGYUN 3B              
1 37214U 10059A   26074.96254602 -.00000169  00000+0 -64003-4 0  9999
2 37214  98.9762 120.5320 0023176  91.0227  11.2887 14.14818815794247
SUOMI NPP               
1 37849U 11061A   26074.94589320  .00000082  00000+0  59754-4 0  9992
2 37849  98.7877  16.4992 0000748 191.7925 168.3234 14.19545424745218
METEOSAT-10 (MSG-3)     
1 38552U 12035B   26074.78081605 -.00000004  00000+0  00000+0 0  9991
2 38552   4.4491  61.4058 0002337 286.7365 106.4629  1.00269408 49925
METOP-B                 
1 38771U 12049A   26074.92096267  .00000122  00000+0  75857-4 0  9992
2 38771  98.6629 128.2317 0001364 233.2928 126.8124 14.21446841700012
INSAT-3D                
1 39216U 13038B   26074.87772671 -.00000338  00000+0  00000+0 0  9993
2 39216   1.6833  83.7596 0001554 244.1888 291.0311  1.00275654 46144
FENGYUN 3C              
1 39260U 13052A   26074.96589331  .00000141  00000+0  93113-4 0  9990
2 39260  98.4901  53.1637 0013607 293.8962  66.0787 14.15731307645375
METEOR-M 2              
1 40069U 14037A   26074.94822106 -.00000081  00000+0 -17608-4 0  9991
2 40069  98.5031  54.0310 0005001 317.8311  42.2482 14.21431021606070
HIMAWARI-8              
1 40267U 14060A   26074.95130702 -.00000276  00000+0  00000+0 0  9990
2 40267   0.0144 160.0261 0000264 168.8502 327.8131  1.00270832 41821
FENGYUN 2G              
1 40367U 14090A   26074.96585547 -.00000299  00000+0  00000+0 0  9991
2 40367   5.4016  73.9388 0001464 138.8222  48.2087  1.00270175 41060
METEOSAT-11 (MSG-4)     
1 40732U 15034A   26074.92513358  .00000062  00000+0  00000+0 0  9990
2 40732   2.9672  71.6115 0001832 275.9912 168.1861  1.00269744  6284
ELEKTRO-L 2             
1 41105U 15074A   26074.77795604 -.00000113  00000+0  00000+0 0  9996
2 41105   6.4583  71.6658 0002802 249.5570 117.7063  1.00273343 37576
INSAT-3DR               
1 41752U 16054A   26074.95129303 -.00000078  00000+0  00000+0 0  9990
2 41752   0.0760  91.3011 0012726 190.8979 307.8007  1.00271836 34886
HIMAWARI-9              
1 41836U 16064A   26074.98660547 -.00000275  00000+0  00000+0 0  9996
2 41836   0.0144 176.3681 0000963 207.5798 285.5825  1.00273730 34275
GOES 16                 
1 41866U 16071A   26074.68868898 -.00000092  00000+0  00000+0 0  9990
2 41866   0.1265  86.8340 0002143 230.9480 358.7394  1.00272263 34162
FENGYUN 4A              
1 41882U 16077A   26074.88729311 -.00000356  00000+0  00000+0 0  9995
2 41882   2.0837  81.2615 0007138 133.0816  42.3272  1.00273711 33995
CYGFM05                 
1 41884U 16078A   26074.61688134  .00021226  00000+0  33533-3 0  9995
2 41884  34.9577 158.2893 0006563 338.7153  21.3296 15.52498574514180
CYGFM04                 
1 41885U 16078B   26074.84527784  .00025191  00000+0  34984-3 0  9990
2 41885  34.9331 128.6335 0004933  19.4246 340.6665 15.56002645514424
CYGFM02                 
1 41886U 16078C   26074.54505488  .00028609  00000+0  36366-3 0  9998
2 41886  34.9416 127.3881 0005913  19.6694 340.4258 15.58339249514521
CYGFM01                 
1 41887U 16078D   26074.64230993  .00023424  00000+0  36376-3 0  9997
2 41887  34.9407 159.8720 0006341 330.1966  29.8395 15.52959174514139
CYGFM08                 
1 41888U 16078E   26074.87186323  .00024006  00000+0  34770-3 0  9993
2 41888  34.9439 140.0977 0007254   2.7489 357.3274 15.54856052514416
CYGFM07                 
1 41890U 16078G   26074.83722388  .00023554  00000+0  33702-3 0  9990
2 41890  34.9455 128.7540 0005378  22.8232 337.2730 15.55203575514433
CYGFM03                 
1 41891U 16078H   26074.55148381  .00024279  00000+0  34750-3 0  9994
2 41891  34.9410 132.6156 0004935   2.1724 357.9020 15.55193492514366
FENGYUN 3D              
1 43010U 17072A   26074.90851168  .00000266  00000+0  14764-3 0  9990
2 43010  99.0034  47.6902 0001243 358.3535   1.7636 14.19717622431758
NOAA 20 (JPSS-1)        
1 43013U 17073A   26074.89011695  .00000067  00000+0  52653-4 0  9994
2 43013  98.7699  15.2158 0001465 129.5673 230.5633 14.19537797431230
GOES 17                 
1 43226U 18022A   26074.90572016 -.00000183  00000+0  00000+0 0  9990
2 43226   0.6962  87.2877 0001525 237.3069  85.4587  1.00273108 29486
FENGYUN 2H              
1 43491U 18050A   26074.93900030 -.00000126  00000+0  00000+0 0  9996
2 43491   2.7884  80.2061 0001310 170.2888 340.1790  1.00272385 28505
METOP-C                 
1 43689U 18087A   26074.87472468  .00000098  00000+0  64577-4 0  9998
2 43689  98.6753 136.1424 0002184  91.2999 268.8429 14.21499032381573
GEO-KOMPSAT-2A          
1 43823U 18100A   26073.38001069 -.00000345  00000+0  00000+0 0  9996
2 43823   0.0358  31.7652 0001616  23.6441  21.6479  1.00271065 26678
METEOR-M2 2             
1 44387U 19038A   26074.95686000 -.00000081  00000+0 -15398-4 0  9990
2 44387  98.9092  60.8951 0000528 344.5205  15.5957 14.24336094348027
ARKTIKA-M 1             
1 47719U 21016A   26072.78872222 -.00000108  00000+0  00000+0 0  9991
2 47719  63.2042  71.2738 7248342 269.5023  15.1596  2.00619294 36876
FENGYUN 3E              
1 49008U 21062A   26074.97365316 -.00000020  00000+0  11193-4 0  9992
2 49008  98.7518  79.4171 0001995  30.3867 329.7425 14.19894942243351
GOES 18                 
1 51850U 22021A   26074.75368927  .00000096  00000+0  00000+0 0  9995
2 51850   0.0368  40.5612 0000704  20.4640 246.6407  1.00271788  5652
NOAA 21 (JPSS-2)        
1 54234U 22150A   26074.92475507  .00000076  00000+0  57012-4 0  9997
2 54234  98.7560  15.1194 0002762  95.6642 264.4849 14.19553963173313
METEOSAT-12 (MTG-I1)    
1 54743U 22170C   26074.92314023 -.00000008  00000+0  00000+0 0  9995
2 54743   0.7132  23.1786 0001768 290.1190 192.1966  1.00271428 12045
TIANMU-1 03             
1 55973U 23039A   26074.90535874  .00015437  00000+0  33535-3 0  9997
2 55973  97.5177 245.4357 0003958  83.9023 276.2676 15.44440247166427
TIANMU-1 04             
1 55974U 23039B   26074.92714208  .00015714  00000+0  33650-3 0  9996
2 55974  97.5110 244.6166 0004550  79.0725 281.1035 15.44859576166432
TIANMU-1 05             
1 55975U 23039C   26074.94698161  .00015801  00000+0  34386-3 0  9992
2 55975  97.5158 245.1277 0003856 101.3101 258.8580 15.44383524166418
TIANMU-1 06             
1 55976U 23039D   26074.92683485  .00015410  00000+0  32976-3 0  9993
2 55976  97.5168 245.6529 0004153  96.6240 263.5481 15.44887094166432
FENGYUN 3G              
1 56232U 23055A   26074.94210557  .00023562  00000+0  38656-3 0  9993
2 56232  49.9924 106.7874 0005854 320.8898  39.1645 15.52253497165519
METEOR-M2 3             
1 57166U 23091A   26074.93044630  .00000020  00000+0  27460-4 0  9992
2 57166  98.6201 131.7701 0005093  85.1835 274.9925 14.24038319141245
TIANMU-1 07             
1 57399U 23101A   26074.93217753  .00006366  00000+0  22701-3 0  9991
2 57399  97.2719 127.7422 0004991 121.0287 239.1444 15.29229579147391
TIANMU-1 08             
1 57400U 23101B   26066.00237819  .00000346  00000+0  14775-4 0  9993
2 57400  97.2717 118.7901 0006380 134.2174 225.9592 15.29204229146020
TIANMU-1 09             
1 57401U 23101C   26074.94924838  .00006812  00000+0  24304-3 0  9992
2 57401  97.2665 127.0078 0005264 124.0491 236.1250 15.29181745147393
TIANMU-1 10             
1 57402U 23101D   26074.98287102  .00006408  00000+0  22776-3 0  9995
2 57402  97.2744 127.9913 0007199 116.8577 243.3400 15.29320995147391
FENGYUN 3F              
1 57490U 23111A   26074.95947655  .00000071  00000+0  53994-4 0  9993
2 57490  98.6911 146.6782 0001140  77.3347 282.7957 14.19920984135637
ARKTIKA-M 2             
1 58584U 23198A   26064.07652728  .00000150  00000+0  00000+0 0  9992
2 58584  63.2186 165.9003 6877723 267.7621  18.8474  2.00612038 16239
TIANMU-1 11             
1 58645U 23205A   26074.97023591  .00005270  00000+0  20776-3 0  9993
2 58645  97.3540  98.0191 0008247 345.7688  14.3317 15.25972551123308
TIANMU-1 12             
1 58646U 23205B   26074.93738089  .00006075  00000+0  23966-3 0  9993
2 58646  97.3528  97.7640 0006049 329.8075  30.2814 15.25900885123288
TIANMU-1 13             
1 58647U 23205C   26074.96807012  .00005423  00000+0  21395-3 0  9990
2 58647  97.3556  98.0359 0005884 306.2928  53.7767 15.25952000123286
TIANMU-1 14             
1 58648U 23205D   26074.95273931  .00005817  00000+0  22941-3 0  9992
2 58648  97.3490  97.2840 0006736 311.0011  49.0645 15.25927000123289
TIANMU-1 19             
1 58660U 23208A   26074.94341433  .00008667  00000+0  30121-3 0  9996
2 58660  97.4388 190.9378 0003765 287.9759  72.1071 15.29976277123066
TIANMU-1 20             
1 58661U 23208B   26074.92288274  .00008834  00000+0  29586-3 0  9997
2 58661  97.4329 191.4571 0005934 298.6754  61.3890 15.31164616123144
TIANMU-1 21             
1 58662U 23208C   26074.91318565  .00009671  00000+0  30377-3 0  9994
2 58662  97.4383 193.7456 0005794 291.9507  68.1119 15.33198519123261
TIANMU-1 22             
1 58663U 23208D   26074.96263523  .00007937  00000+0  27944-3 0  9992
2 58663  97.4384 190.9639 0002677 325.6769  34.4298 15.29583300123071
TIANMU-1 15             
1 58700U 24004A   26074.95046410  .00005781  00000+0  22808-3 0  9991
2 58700  97.4670 261.1809 0006170 326.2611  33.8234 15.25933021121555
TIANMU-1 16             
1 58701U 24004B   26074.93381029  .00006308  00000+0  24836-3 0  9997
2 58701  97.4612 260.4830 0004695 332.7429  27.3562 15.25968380121555
TIANMU-1 17             
1 58702U 24004C   26074.91599759  .00006172  00000+0  24283-3 0  9992
2 58702  97.4644 260.9218 0003932 336.5789  23.5269 15.26003820121541
TIANMU-1 18             
1 58703U 24004D   26074.96696028  .00005517  00000+0  21775-3 0  9990
2 58703  97.4662 261.1851 0003327 337.9916  22.1179 15.25949419121551
INSAT-3DS               
1 58990U 24033A   26074.95525534 -.00000156  00000+0  00000+0 0  9991
2 58990   0.0246 236.0531 0002128 131.6556 231.7946  1.00271512 46130
METEOR-M2 4             
1 59051U 24039A   26074.97996669  .00000032  00000+0  34045-4 0  9992
2 59051  98.6914  35.4996 0008192  80.7042 279.5062 14.22418313106014
GOES 19                 
1 60133U 24119A   26074.90849351 -.00000249  00000+0  00000+0 0  9992
2 60133   0.0090 271.4407 0001042 129.5782  24.3489  1.00270928  6027
FENGYUN 3H              
1 65815U 25219A   26074.95566664  .00000075  00000+0  55813-4 0  9997
2 65815  98.6692  17.5756 0001158  59.1567 300.9724 14.19934401 24159
